{
  "type": "FeatureCollection",
  "features": [
    {
      "type": "Feature",
      "properties": {
        "norad_id": 30153,
        "name": "FENGYUN 1C DEB",
        "group": "fengyun-1c-debris",
        "lat": 21.11916692008037,
        "lon": 175.19683299804194,
        "alt_km": 1114.5462814566672,
        "timestamp": "2025-12-25T09:48:52.564612+00:00",
        "meta_object_name": "FENGYUN 1C DEB",
        "meta_object_id": "1999-025TJ",
        "meta_epoch": "2025-12-24T22:51:14.605632",
        "meta_mean_motion": 13.78803733,
        "meta_eccentricity": 0.02004387,
        "meta_inclination": 100.468,
        "meta_ra_of_asc_node": 350.5981,
        "meta_arg_of_pericenter": 334.6275,
        "meta_mean_anomaly": 78.2692,
        "meta_ephemeris_type": 0,
        "meta_classification_type": "U",
        "meta_norad_cat_id": 30153,
        "meta_element_set_no": 999,
        "meta_rev_at_epoch": 94943,
        "meta_bstar": 0.0011933299,
        "meta_mean_motion_dot": 1.357e-05,
        "meta_mean_motion_ddot": 0,
        "tle_line1": "1 30153U 99025TJ  25358.95225238  .00001357  00000+0  11933-2 0  9990",
        "tle_line2": "2 30153 100.4680 350.5981 0200438 334.6275  78.2692 13.78803733949437"
      },
      "geometry": {
        "type": "Point",
        "coordinates": [
          175.19683299804194,
          21.11916692008037
        ]
      }
    },
    {
      "type": "Feature",
      "properties": {
        "norad_id": 30154,
        "name": "FENGYUN 1C DEB",
        "group": "fengyun-1c-debris",
        "lat": 13.832824226841021,
        "lon": 37.87150285015891,
        "alt_km": 1059.103267660692,
        "timestamp": "2025-12-25T09:48:52.564622+00:00",
        "meta_object_name": "FENGYUN 1C DEB",
        "meta_object_id": "1999-025TK",
        "meta_epoch": "2025-12-24T15:19:00.036768",
        "meta_mean_motion": 13.86032737,
        "meta_eccentricity": 0.0182989,
        "meta_inclination": 98.4484,
        "meta_ra_of_asc_node": 39.2728,
        "meta_arg_of_pericenter": 166.3932,
        "meta_mean_anomaly": 325.0604,
        "meta_ephemeris_type": 0,
        "meta_classification_type": "U",
        "meta_norad_cat_id": 30154,
        "meta_element_set_no": 999,
        "meta_rev_at_epoch": 95149,
        "meta_bstar": 0.0015058138,
        "meta_mean_motion_dot": 1.939e-05,
        "meta_mean_motion_ddot": 0,
        "tle_line1": "1 30154U 99025TK  25358.63819487  .00001939  00000+0  15058-2 0  9999",
        "tle_line2": "2 30154  98.4484  39.2728 0182989 166.3932 325.0604 13.86032737951498"
      },
      "geometry": {
        "type": "Point",
        "coordinates": [
          37.87150285015891,
          13.832824226841021
        ]
      }
    },
    {
      "type": "Feature",
      "properties": {
        "norad_id": 30155,
        "name": "FENGYUN 1C DEB",
        "group": "fengyun-1c-debris",
        "lat": 42.19743910034735,
        "lon": 64.2244794166955,
        "alt_km": 984.7956145080734,
        "timestamp": "2025-12-25T09:48:52.564632+00:00",
        "meta_object_name": "FENGYUN 1C DEB",
        "meta_object_id": "1999-025TL",
        "meta_epoch": "2025-12-24T17:52:45.911712",
        "meta_mean_motion": 13.73851656,
        "meta_eccentricity": 0.02426744,
        "meta_inclination": 99.7513,
        "meta_ra_of_asc_node": 72.5166,
        "meta_arg_of_pericenter": 312.5385,
        "meta_mean_anomaly": 45.5497,
        "meta_ephemeris_type": 0,
        "meta_classification_type": "U",
        "meta_norad_cat_id": 30155,
        "meta_element_set_no": 999,
        "meta_rev_at_epoch": 94029,
        "meta_bstar": 0.0018967949,
        "meta_mean_motion_dot": 2.149e-05,
        "meta_mean_motion_ddot": 0,
        "tle_line1": "1 30155U 99025TL  25358.74497583  .00002149  00000+0  18968-2 0  9998",
        "tle_line2": "2 30155  99.7513  72.5166 0242674 312.5385  45.5497 13.73851656940292"
      },
      "geometry": {
        "type": "Point",
        "coordinates": [
          64.2244794166955,
          42.19743910034735
        ]
      }
    },
    {
      "type": "Feature",
      "properties": {
        "norad_id": 30156,
        "name": "FENGYUN 1C DEB",
        "group": "fengyun-1c-debris",
        "lat": -71.05110505085841,
        "lon": 118.48868101242753,
        "alt_km": 834.9933307693018,
        "timestamp": "2025-12-25T09:48:52.564642+00:00",
        "meta_object_name": "FENGYUN 1C DEB",
        "meta_object_id": "1999-025TM",
        "meta_epoch": "2025-12-24T20:45:16.129728",
        "meta_mean_motion": 13.80846167,
        "meta_eccentricity": 0.01985066,
        "meta_inclination": 98.9196,
        "meta_ra_of_asc_node": 325.1947,
        "meta_arg_of_pericenter": 230.2025,
        "meta_mean_anomaly": 198.4046,
        "meta_ephemeris_type": 0,
        "meta_classification_type": "U",
        "meta_norad_cat_id": 30156,
        "meta_element_set_no": 999,
        "meta_rev_at_epoch": 94858,
        "meta_bstar": 0.0010802308,
        "meta_mean_motion_dot": 1.279e-05,
        "meta_mean_motion_ddot": 0,
        "tle_line1": "1 30156U 99025TM  25358.86477002  .00001279  00000+0  10802-2 0  9998",
        "tle_line2": "2 30156  98.9196 325.1947 0198506 230.2025 198.4046 13.80846167948583"
      },
      "geometry": {
        "type": "Point",
        "coordinates": [
          118.48868101242753,
          -71.05110505085841
        ]
      }
    },
    {
      "type": "Feature",
      "properties": {
        "norad_id": 30157,
        "name": "FENGYUN 1C DEB",
        "group": "fengyun-1c-debris",
        "lat": -40.54002420182373,
        "lon": -90.76349610712873,
        "alt_km": 736.2242627441019,
        "timestamp": "2025-12-25T09:48:52.564656+00:00",
        "meta_object_name": "FENGYUN 1C DEB",
        "meta_object_id": "1999-025TN",
        "meta_epoch": "2025-12-24T06:30:03.653568",
        "meta_mean_motion": 14.45252792,
        "meta_eccentricity": 0.00369606,
        "meta_inclination": 98.7145,
        "meta_ra_of_asc_node": 95.607,
        "meta_arg_of_pericenter": 159.967,
        "meta_mean_anomaly": 262.7951,
        "meta_ephemeris_type": 0,
        "meta_classification_type": "U",
        "meta_norad_cat_id": 30157,
        "meta_element_set_no": 999,
        "meta_rev_at_epoch": 98239,
        "meta_bstar": 0.0021716886,
        "meta_mean_motion_dot": 7.642e-05,
        "meta_mean_motion_ddot": 0,
        "tle_line1": "1 30157U 99025TN  25358.27087562  .00007642  00000+0  21717-2 0  9999",
        "tle_line2": "2 30157  98.7145  95.6070 0036960 159.9670 262.7951 14.45252792982394"
      },
      "geometry": {
        "type": "Point",
        "coordinates": [
          -90.76349610712873,
          -40.54002420182373
        ]
      }
    },
    {
      "type": "Feature",
      "properties": {
        "norad_id": 30160,
        "name": "FENGYUN 1C DEB",
        "group": "fengyun-1c-debris",
        "lat": -66.32104689223074,
        "lon": -32.59417940668117,
        "alt_km": 1351.5495396592714,
        "timestamp": "2025-12-25T09:48:52.564667+00:00",
        "meta_object_name": "FENGYUN 1C DEB",
        "meta_object_id": "1999-025TR",
        "meta_epoch": "2025-12-24T20:10:00.768288",
        "meta_mean_motion": 13.42910107,
        "meta_eccentricity": 0.03434556,
        "meta_inclination": 98.8875,
        "meta_ra_of_asc_node": 306,
        "meta_arg_of_pericenter": 97.2919,
        "meta_mean_anomaly": 328.1997,
        "meta_ephemeris_type": 0,
        "meta_classification_type": "U",
        "meta_norad_cat_id": 30160,
        "meta_element_set_no": 999,
        "meta_rev_at_epoch": 92576,
        "meta_bstar": 0.0011774976,
        "meta_mean_motion_dot": 9.18e-06,
        "meta_mean_motion_ddot": 0,
        "tle_line1": "1 30160U 99025TR  25358.84028667  .00000918  00000+0  11775-2 0  9999",
        "tle_line2": "2 30160  98.8875 306.0000 0343455  97.2919 328.1997 13.42910107925763"
      },
      "geometry": {
        "type": "Point",
        "coordinates": [
          -32.59417940668117,
          -66.32104689223074
        ]
      }
    },
    {
      "type": "Feature",
      "properties": {
        "norad_id": 30161,
        "name": "FENGYUN 1C DEB",
        "group": "fengyun-1c-debris",
        "lat": 21.31784626674913,
        "lon": 171.65871850924856,
        "alt_km": 978.6694114072652,
        "timestamp": "2025-12-25T09:48:52.564677+00:00",
        "meta_object_name": "FENGYUN 1C DEB",
        "meta_object_id": "1999-025TS",
        "meta_epoch": "2025-12-24T10:40:01.812288",
        "meta_mean_motion": 13.49750643,
        "meta_eccentricity": 0.03276815,
        "meta_inclination": 100.5066,
        "meta_ra_of_asc_node": 346.4883,
        "meta_arg_of_pericenter": 229.5927,
        "meta_mean_anomaly": 287.9173,
        "meta_ephemeris_type": 0,
        "meta_classification_type": "U",
        "meta_norad_cat_id": 30161,
        "meta_element_set_no": 999,
        "meta_rev_at_epoch": 92717,
        "meta_bstar": 0.001355303,
        "meta_mean_motion_dot": 1.147e-05,
        "meta_mean_motion_ddot": 0,
        "tle_line1": "1 30161U 99025TS  25358.44446542  .00001147  00000+0  13553-2 0  9993",
        "tle_line2": "2 30161 100.5066 346.4883 0327681 229.5927 287.9173 13.49750643927175"
      },
      "geometry": {
        "type": "Point",
        "coordinates": [
          171.65871850924856,
          21.31784626674913
        ]
      }
    }
  ]
}